NORAD_CAT_ID,OBJECT_NAME,OBJECT_TYPE,EPOCH,MEAN_MOTION,ECCENTRICITY,INCLINATION,RA_OF_ASC_NODE,ARG_OF_PERICENTER,MEAN_ANOMALY,BSTAR,MEAN_MOTION_DOT,MEAN_MOTION_DDOT,TLE_LINE0,TLE_LINE1,TLE_LINE2,SEMIMAJOR_AXIS,PERIOD,APOGEE,PERIGEE,DECAYED
52331.0,STARLINK-3889,PAYLOAD,2022-10-05 12:07:15,15.08833914,0.0001834,53.2166,65.9069,51.1014,309.0142,-0.00014163,-2.541e-05,0.0,0 STARLINK-3889,1 52331U 22045A   22278.50503836 -.00002541  00000-0 -14163-3 0  9990,2 52331  53.2166  65.9069 0001834  51.1014 309.0142 15.08833914 26753,6917.899,95.438,541.033,538.495,0.0
52331.0,STARLINK-3889,PAYLOAD,2022-10-05 20:04:10,15.08839398,0.0001861,53.2166,64.42,50.8872,309.2285,-2.545800000000001e-05,-6.93e-06,0.0,0 STARLINK-3889,1 52331U 22045A   22278.83623767 -.00000693  00000-0 -25458-4 0  9998,2 52331  53.2166  64.4200 0001861  50.8872 309.2285 15.08839398 26800,6917.882,95.438,541.035,538.46,0.0
52331.0,STARLINK-3889,PAYLOAD,2022-10-05 21:39:33,15.08841155,0.0001855,53.2167,64.1228,51.1813,308.9344,-1.9907e-05,-6.05e-06,0.0,0 STARLINK-3889,1 52331U 22045A   22278.90247650 -.00000605  00000-0 -19907-4 0  9994,2 52331  53.2167  64.1228 0001855  51.1813 308.9344 15.08841155 26817,6917.877,95.437,541.025,538.4590000000002,0.0
52331.0,STARLINK-3889,PAYLOAD,2022-10-06 11:58:02,15.0883586,0.0001833,53.2167,61.4463,50.4047,309.7107,7.7549e-05,9.46e-06,0.0,0 STARLINK-3889,1 52331U 22045A   22279.49864042  .00000946  00000-0  77549-4 0  9991,2 52331  53.2167  61.4463 0001833  50.4047 309.7107 15.08835860 26907,6917.893,95.438,541.026,538.49,0.0
52331.0,STARLINK-3889,PAYLOAD,2022-10-06 16:44:11,15.08842635,0.0001885,53.2168,60.5542,47.1313,312.9837,7.252e-05,8.66e-06,0.0,0 STARLINK-3889,1 52331U 22045A   22279.69735735  .00000866  00000-0  72520-4 0  9994,2 52331  53.2168  60.5542 0001885  47.1313 312.9837 15.08842635 26939,6917.871999999999,95.437,541.0409999999998,538.433,0.0
52331.0,STARLINK-3889,PAYLOAD,2022-10-07 03:51:53,15.08853181,0.0001869,53.2169,58.4727,49.5672,310.5483,0.00023749,3.495e-05,0.0,0 STARLINK-3889,1 52331U 22045A   22280.16103176  .00003495  00000-0  23749-3 0  9995,2 52331  53.2169  58.4727 0001869  49.5672 310.5483 15.08853181 27005,6917.84,95.437,540.998,538.4119999999998,0.0
52331.0,STARLINK-3889,PAYLOAD,2022-10-07 10:13:26,15.08838431,0.0001788,53.2166,57.283,50.6201,309.4949,4.6623e-05,4.54e-06,0.0,0 STARLINK-3889,1 52331U 22045A   22280.42599754  .00000454  00000-0  46623-4 0  9994,2 52331  53.2166  57.2830 0001788  50.6201 309.4949 15.08838431 27044,6917.885,95.438,540.987,538.513,0.0
52331.0,STARLINK-3889,PAYLOAD,2022-10-07 11:48:49,15.08842838,0.0001712,53.2167,56.9855,47.8384,312.2753,0.00010784,1.429e-05,0.0,0 STARLINK-3889,1 52331U 22045A   22280.49223536  .00001429  00000-0  10784-3 0  9994,2 52331  53.2167  56.9855 0001712  47.8384 312.2753 15.08842838 27057,6917.871999999999,95.437,540.9209999999998,538.552,0.0
52331.0,STARLINK-3889,PAYLOAD,2022-10-07 13:24:12,15.08841587,0.0001943,53.2168,56.6885,42.6279,317.4864,9.1628e-05,1.17e-05,0.0,0 STARLINK-3889,1 52331U 22045A   22280.55847672  .00001170  00000-0  91628-4 0  9994,2 52331  53.2168  56.6885 0001943  42.6279 317.4864 15.08841587 27061,6917.876,95.437,541.085,538.396,0.0
52331.0,STARLINK-3889,PAYLOAD,2022-10-08 10:04:13,15.08831639,0.0001784,53.2171,52.8224,49.0063,311.1084,-5.2946e-05,-1.13e-05,0.0,0 STARLINK-3889,1 52331U 22045A   22281.41960286 -.00001130  00000-0 -52946-4 0  9995,2 52331  53.2171  52.8224 0001784  49.0063 311.1084 15.08831639 27191,6917.906,95.438,541.005,538.5369999999998,0.0
52331.0,STARLINK-3889,PAYLOAD,2022-10-08 13:14:59,15.08836461,0.0001757,53.2171,52.2274,49.2977,310.8168,2.1347e-05,5.2e-07,0.0,0 STARLINK-3889,1 52331U 22045A   22281.55208110  .00000052  00000-0  21347-4 0  9992,2 52331  53.2171  52.2274 0001757  49.2977 310.8168 15.08836461 27216,6917.891,95.438,540.972,538.5409999999998,0.0
52331.0,STARLINK-3889,PAYLOAD,2022-10-08 16:25:45,15.08839475,0.0001803,53.2171,51.6328,49.4709,310.644,6.6365e-05,7.68e-06,0.0,0 STARLINK-3889,1 52331U 22045A   22281.68456000  .00000768  00000-0  66365-4 0  9992,2 52331  53.2171  51.6328 0001803  49.4709 310.6440 15.08839475 27237,6917.882,95.438,540.994,538.5,0.0
52331.0,STARLINK-3889,PAYLOAD,2022-10-09 11:30:24,15.08835109,0.0001909,53.2172,48.0649,47.4702,312.6451,-2.0316e-05,-6.11e-06,0.0,0 STARLINK-3889,1 52331U 22045A   22282.47944480 -.00000611  00000-0 -20316-4 0  9999,2 52331  53.2172  48.0649 0001909  47.4702 312.6451 15.08835109 27359,6917.895,95.438,541.081,538.44,0.0
52331.0,STARLINK-3889,PAYLOAD,2022-10-09 13:05:47,15.08839316,0.0001911,53.2174,47.7676,46.4037,313.7114,5.1616e-05,5.33e-06,0.0,0 STARLINK-3889,1 52331U 22045A   22282.54568309  .00000533  00000-0  51616-4 0  9997,2 52331  53.2174  47.7676 0001911  46.4037 313.7114 15.08839316 27363,6917.882,95.438,541.069,538.425,0.0
52331.0,STARLINK-3889,PAYLOAD,2022-10-09 14:41:10,15.08840892,0.0001929,53.2173,47.4702,46.6066,313.5086,8.3275e-05,1.037e-05,0.0,0 STARLINK-3889,1 52331U 22045A   22282.61192268  .00001037  00000-0  83275-4 0  9998,2 52331  53.2173  47.4702 0001929  46.6066 313.5086 15.08840892 27370,6917.878000000002,95.437,541.077,538.408,0.0
52331.0,STARLINK-3889,PAYLOAD,2022-10-10 04:59:38,15.08857167,0.0001906999999999,53.2168,44.7933,49.1359,310.9799,0.00063327,9.81e-05,0.0,0 STARLINK-3889,1 52331U 22045A   22283.20807922  .00009810  00000-0  63327-3 0  9996,2 52331  53.2168  44.7933 0001907  49.1359 310.9799 15.08857167 27464,6917.828,95.436,541.012,538.374,0.0
52331.0,STARLINK-3889,PAYLOAD,2022-10-10 11:21:10,15.08850128,0.0001942,53.2171,43.6041,43.1512,316.9632,0.00049117,7.54e-05,0.0,0 STARLINK-3889,1 52331U 22045A   22283.47304036  .00007540  00000-0  49117-3 0  9992,2 52331  53.2171  43.6041 0001942  43.1512 316.9632 15.08850128 27507,6917.849,95.437,541.058,538.371,0.0
52331.0,STARLINK-3889,PAYLOAD,2022-10-10 14:31:56,15.08855917,0.0001883,53.2172,43.0094,42.7101,317.4037,0.00068938,0.00010705,0.0,0 STARLINK-3889,1 52331U 22045A   22283.60551858  .00010705  00000-0  68938-3 0  9992,2 52331  53.2172  43.0094 0001883  42.7101 317.4037 15.08855917 27521,6917.831999999999,95.437,540.999,538.394,0.0
52331.0,STARLINK-3889,PAYLOAD,2022-10-10 17:42:43,15.08853002,0.0001940999999999,53.2175,42.4152,40.6571,319.4566,0.0011975,0.00018828,0.0,0 STARLINK-3889,1 52331U 22045A   22283.73799908  .00018828  00000-0  11975-2 0  9998,2 52331  53.2175  42.4152 0001941  40.6571 319.4566 15.08853002 27549,6917.840999999999,95.437,541.048,538.363,0.0
52331.0,STARLINK-3889,PAYLOAD,2022-10-11 03:15:01,15.08856027,0.0002247,53.2164,40.6306,46.4242,313.6936,0.0005474999999999,8.44e-05,0.0,0 STARLINK-3889,1 52331U 22045A   22284.13543862  .00008440  00000-0  54750-3 0  9997,2 52331  53.2164  40.6306 0002247  46.4242 313.6936 15.08856027 27601,6917.831,95.437,541.251,538.1419999999998,0.0
52331.0,STARLINK-3889,PAYLOAD,2022-10-11 11:11:57,15.08834087,0.0002116,53.2179,39.1443,34.5003,325.6126,9.5106e-06,-1.37e-06,0.0,0 STARLINK-3889,1 52331U 22045A   22284.46664271 -.00000137  00000-0  95106-5 0  9999,2 52331  53.2179  39.1443 0002116  34.5003 325.6126 15.08834087 27651,6917.898,95.438,541.227,538.3,0.0
52331.0,STARLINK-3889,PAYLOAD,2022-10-11 17:33:30,15.08823285,0.0001699999999999,53.2179,37.9556,40.5163,319.5955,-0.00011133,-2.059e-05,0.0,0 STARLINK-3889,1 52331U 22045A   22284.73160842 -.00002059  00000-0 -11133-3 0  9996,2 52331  53.2179  37.9556 0001700  40.5163 319.5955 15.08823285 27698,6917.931,95.439,540.9730000000002,538.62,0.0
52331.0,STARLINK-3889,PAYLOAD,2022-10-12 14:13:32,15.08855246,0.0002158,53.2185,34.0887,39.2481,320.8667,0.0017554,0.00027772,0.0,0 STARLINK-3889,1 52331U 22045A   22285.59273629  .00027772  00000-0  17554-2 0  9998,2 52331  53.2185  34.0887 0002158  39.2481 320.8667 15.08855246 27828,6917.834,95.437,541.192,538.206,0.0
52331.0,STARLINK-3889,PAYLOAD,2022-10-12 17:24:18,15.08854504,0.0002231999999999,53.2181,33.4954,37.7108,322.404,0.0015377,0.00024279,0.0,0 STARLINK-3889,1 52331U 22045A   22285.72521619  .00024279  00000-0  15377-2 0  9998,2 52331  53.2181  33.4954 0002232  37.7108 322.4040 15.08854504 27845,6917.8359999999975,95.437,541.245,538.1569999999998,0.0
52331.0,STARLINK-3889,PAYLOAD,2022-10-13 10:53:33,15.08820626,0.000356,53.2189,30.2255,13.5204,346.5883,0.00016155,2.282e-05,0.0,0 STARLINK-3889,1 52331U 22045A   22286.45386347  .00002282  00000-0  16155-3 0  9992,2 52331  53.2189  30.2255 0003560  13.5204 346.5883 15.08820626 27958,6917.94,95.439,542.2669999999998,537.342,0.0
52331.0,STARLINK-3889,PAYLOAD,2022-10-14 12:19:43,15.08846802,0.0002387999999999,53.2182,25.4652,33.4746,326.6397,0.00017338,2.473e-05,0.0,0 STARLINK-3889,1 52331U 22045A   22287.51369285  .00002473  00000-0  17338-3 0  9998,2 52331  53.2182  25.4652 0002388  33.4746 326.6397 15.08846802 28119,6917.86,95.437,541.377,538.073,0.0
52331.0,STARLINK-3889,PAYLOAD,2022-10-15 12:10:29,15.08863271,0.0002154999999999,53.2172,21.0066,36.994,323.1201,0.00077326,0.00012048,0.0,0 STARLINK-3889,1 52331U 22045A   22288.50728517  .00012048  00000-0  77326-3 0  9997,2 52331  53.2172  21.0066 0002155  36.9940 323.1201 15.08863271 28266,6917.809,95.436,541.165,538.183,0.0
52331.0,STARLINK-3889,PAYLOAD,2022-10-15 13:45:52,15.08858323,0.0002340999999999,53.2171,20.7076,38.1338,321.9819,0.00051688,7.952e-05,0.0,0 STARLINK-3889,1 52331U 22045A   22288.57352538  .00007952  00000-0  51688-3 0  9991,2 52331  53.2171  20.7076 0002341  38.1338 321.9819 15.08858323 28278,6917.824000000001,95.436,541.309,538.07,0.0
52331.0,STARLINK-3889,PAYLOAD,2022-10-16 12:01:16,15.08823392,0.0001747,53.2171,16.5462,32.0797,328.0302,-0.000618,-0.00010106,0.0,0 STARLINK-3889,1 52331U 22045A   22289.50088670 -.00010106  00000-0 -61800-3 0  9992,2 52331  53.2171  16.5462 0001747  32.0797 328.0302 15.08823392 28410,6917.931,95.439,541.005,538.5880000000002,0.0
